[{"OBJECT_NAME":"POLYTECH UNIVERSE-4","OBJECT_ID":"2024-199N","EPOCH":"2026-03-09T22:39:35.452512","MEAN_MOTION":15.41920317,"ECCENTRICITY":0.00080129,"INCLINATION":97.316,"RA_OF_ASC_NODE":301.6563,"ARG_OF_PERICENTER":282.4901,"MEAN_ANOMALY":77.5449,"EPHEMERIS_TYPE":0,"CLASSIFICATION_TYPE":"U","NORAD_CAT_ID":61747,"ELEMENT_SET_NO":999,"REV_AT_EPOCH":12205,"BSTAR":0.00052704604,"MEAN_MOTION_DOT":0.0002238,"MEAN_MOTION_DDOT":0},{"OBJECT_NAME":"STARLINK-34379","OBJECT_ID":"2025-123M","EPOCH":"2026-03-09T16:18:28.587456","MEAN_MOTION":15.42688332,"ECCENTRICITY":0.00021053,"INCLINATION":70.0035,"RA_OF_ASC_NODE":164.9522,"ARG_OF_PERICENTER":264.6455,"MEAN_ANOMALY":95.4487,"EPHEMERIS_TYPE":0,"CLASSIFICATION_TYPE":"U","NORAD_CAT_ID":64302,"ELEMENT_SET_NO":999,"REV_AT_EPOCH":4235,"BSTAR":0.0010993501,"MEAN_MOTION_DOT":0.00048253,"MEAN_MOTION_DDOT":0}]
